H1 CPF  1  HTS 2022  6  6 12  6571 larets           NONE
H2  0304206 5557    27944 2022 06 06  0  0  0 2022 06 11  0  0  0   180 1 1  0 0 0
H5  0.0560 
H9 
10 0 59737  59400.00000  0    4703880.688   -2582686.738    4596557.367
10 0 59737  59580.00000  0    5207810.671   -3239259.735    3511771.916
10 0 59737  59760.00000  0    5506890.681   -3788800.155    2298600.614
10 0 59737  59940.00000  0    5593335.974   -4205830.528    1001363.869
10 0 59737  60120.00000  0    5467724.186   -4469608.762    -332502.517
10 0 59737  60300.00000  0    5138854.086   -4565119.791   -1654209.058
10 0 59737  60480.00000  0    4623262.594   -4483837.301   -2915435.468
10 0 59737  60660.00000  0    3944424.057   -4224214.577   -4070129.977
10 0 59737  60840.00000  0    3131677.274   -3791881.987   -5076206.042
10 0 59737  61020.00000  0    2218938.304   -3199544.844   -5897065.978
10 0 59737  61200.00000  0    1243269.039   -2466595.365   -6502895.187
10 0 59737  61380.00000  0     243368.672   -1618461.906   -6871700.742
10 0 59737  61560.00000  0    -741956.079    -685714.981   -6990065.884
10 0 59737  61740.00000  0   -1675279.316     297030.188   -6853605.299
10 0 59737  61920.00000  0   -2521960.066    1292379.427   -6467123.684
10 0 59737  62100.00000  0   -3251418.806    2261559.739   -5844473.789
10 0 59737  62280.00000  0   -3838250.434    3165914.866   -5008116.039
10 0 59737  62460.00000  0   -4263141.944    3968452.334   -3988373.436
10 0 59737  62640.00000  0   -4513549.651    4635379.737   -2822382.850
10 0 59737  62820.00000  0   -4584101.054    5137562.536   -1552772.709
10 0 59737  63000.00000  0   -4476703.160    5451832.676    -226103.423
10 0 59737  63180.00000  0   -4200340.210    5562077.776    1108878.014
10 0 59737  63360.00000  0   -3770562.858    5460042.458    2403090.969
10 0 59737  63540.00000  0   -3208693.244    5145793.870    3608996.234
10 0 59737  63720.00000  0   -2540787.349    4627825.758    4682392.680
10 0 59737  63900.00000  0   -1796422.215    3922807.532    5584057.955
10 0 59737  64080.00000  0   -1007372.259    3054994.168    6281172.198
10 0 59737  64260.00000  0    -206241.659    2055332.426    6748472.507
10 0 59737  64440.00000  0     574881.269     960314.063    6969112.191
10 0 59737  64620.00000  0    1305699.508    -189376.774    6935216.475
10 0 59737  64800.00000  0    1958868.549   -1350373.931    6648129.127
10 0 59737  64980.00000  0    2511007.641   -2478253.694    6118353.122
10 0 59737  65160.00000  0    2943533.178   -3529223.960    5365185.271
10 0 59737  65340.00000  0    3243287.073   -4461823.657    4416047.663
10 0 59737  65520.00000  0    3402939.226   -5238572.081    3305529.382
10 0 59737  65700.00000  0    3421147.969   -5827503.362    2074155.408
10 0 59737  65880.00000  0    3302466.756   -6203515.090     766917.884
10 0 59737  66060.00000  0    3056999.965   -6349461.898    -568377.614
10 0 59737  66240.00000  0    2699825.085   -6256941.805   -1882888.542
10 0 59737  66420.00000  0    2250201.891   -5926723.809   -3128562.180
10 0 59737  66600.00000  0    1730612.732   -5368796.488   -4259925.348
10 0 59737  66780.00000  0    1165683.404   -4602031.960   -5235757.013
10 0 59737  66960.00000  0     581050.331   -3653495.455   -6020572.215
10 0 59737  67140.00000  0       2225.171   -2557443.897   -6585874.981
10 0 59737  67320.00000  0    -546494.348   -1354058.535   -6911144.182
10 0 59737  67500.00000  0   -1043022.097     -87964.784   -6984534.336
10 0 59737  67680.00000  0   -1468355.381    1193409.677   -6803281.147
10 0 59737  67860.00000  0   -1807295.040    2441585.453   -6373806.688
10 0 59737  68040.00000  0   -2048990.719    3608842.974   -5711526.702
10 0 59737  68220.00000  0   -2187296.604    4650046.384   -4840356.142
10 0 59737  68400.00000  0   -2220923.584    5524418.237   -3791908.272
10 0 59737  68580.00000  0   -2153377.579    6197190.712   -2604394.016
10 0 59737  68760.00000  0   -1992680.561    6641056.548   -1321253.704
10 0 59737  68940.00000  0   -1750886.732    6837348.756      10440.613
10 0 59737  69120.00000  0   -1443413.489    6776881.575    1341750.061
10 0 59737  69300.00000  0   -1088217.858    6460397.553    2623736.660
10 0 59737  69480.00000  0    -704861.885    5898575.513    3809329.770
10 0 59737  69660.00000  0    -313523.994    5111623.586    4855095.784
10 0 59737  69840.00000  0      65992.370    4128480.087    5722849.951
10 0 59737  70020.00000  0     415205.454    2985666.412    6381030.656
10 0 59737  70200.00000  0     717806.046    1725866.569    6805804.796
10 0 59737  70380.00000  0     960379.875     396290.573    6981876.343
10 0 59737  70560.00000  0    1132975.360    -953108.047    6902986.168
10 0 59737  70740.00000  0    1229498.168   -2271500.071    6572106.898
10 0 59737  70920.00000  0    1247921.056   -3509082.812    6001329.284
10 0 59737  71100.00000  0    1190302.279   -4618955.226    5211438.235
10 0 59737  71280.00000  0    1062615.661   -5558897.646    4231189.424
10 0 59737  71460.00000  0     874400.950   -6293005.137    3096306.748
10 0 59737  71640.00000  0     638244.010   -6793108.095    1848208.891
10 0 59737  71820.00000  0     369106.759   -7039906.040     532507.181
10 0 59737  72000.00000  0      83538.820   -7023763.309    -802675.196
10 0 59737  72180.00000  0    -201191.367   -6745109.007   -2108502.972
10 0 59737  72360.00000  0    -467995.359   -6214415.263   -3337252.718
10 0 59737  72540.00000  0    -700848.268   -5451769.328   -4444083.067
10 0 59737  72720.00000  0    -885613.624   -4486058.161   -5388679.257
10 0 59737  72900.00000  0   -1010767.381   -3353815.037   -6136701.109
10 0 59737  73080.00000  0   -1067987.709   -2097791.822   -6660991.802
10 0 59737  73260.00000  0   -1052586.974    -765319.921   -6942515.072
10 0 59737  73440.00000  0    -963771.478     593472.336   -6971003.218
10 0 59737  73620.00000  0    -804718.436    1927524.892   -6745308.993
10 0 59737  73800.00000  0    -582468.245    3186736.819   -6273459.872
10 0 59737  73980.00000  0    -307634.502    4323834.273   -5572414.394
10 0 59737  74160.00000  0       6063.278    5296159.704   -4667511.872
10 0 59737  74340.00000  0     342427.569    6067317.256   -3591618.143
10 0 59737  74520.00000  0     683549.207    6608607.070   -2383976.631
10 0 59737  74700.00000  0    1010681.167    6900177.027   -1088794.103
10 0 59737  74880.00000  0    1305178.966    6931829.164     246395.775
10 0 59737  75060.00000  0    1549459.070    6703425.032    1572526.212
10 0 59737  75240.00000  0    1727919.633    6224862.366    2840862.093
10 0 59737  75420.00000  0    1827775.040    5515630.609    4004848.742
10 0 59737  75600.00000  0    1839761.685    4603967.286    5021865.058
10 0 59737  75780.00000  0    1758676.767    3525656.988    5854800.783
10 0 59737  75960.00000  0    1583723.961    2322550.418    6473384.618
10 0 59737  76140.00000  0    1318658.798    1040889.066    6855238.028
10 0 59737  76320.00000  0     971728.134    -270501.929    6986629.514
10 0 59737  76500.00000  0     555409.171   -1562073.507    6862920.559
10 0 59737  76680.00000  0      85955.912   -2785413.192    6488707.806
10 0 59737  76860.00000  0    -417233.458   -3895048.913    5877650.773
10 0 59737  77040.00000  0    -932401.814   -4850130.735    5051989.828
10 0 59737  77220.00000  0   -1436346.239   -5615943.181    4041781.762
10 0 59737  77400.00000  0   -1905434.671   -6165208.758    2883850.340
10 0 59737  77580.00000  0   -2316679.974   -6479109.556    1620466.799
10 0 59737  77760.00000  0   -2648821.957   -6547977.303     297809.556
10 0 59737  77940.00000  0   -2883359.684   -6371615.936   -1035744.030
10 0 59737  78120.00000  0   -3005481.869   -5959235.595   -2331421.747
10 0 59737  78300.00000  0   -3004848.681   -5328998.217   -3541877.987
10 0 59737  78480.00000  0   -2876182.234   -4507196.853   -4622951.264
10 0 59737  78660.00000  0   -2619635.380   -3527117.358   -5535276.663
10 0 59737  78840.00000  0   -2240928.242   -2427650.722   -6245694.542
10 0 59737  79020.00000  0   -1751249.258   -1251721.847   -6728415.374
10 0 59737  79200.00000  0   -1166924.399     -44602.577   -6965907.002
10 0 59737  79380.00000  0    -508874.177    1147820.791   -6949487.699
10 0 59737  79560.00000  0     198125.369    2280767.125   -6679626.783
10 0 59737  79740.00000  0     926356.520    3312221.525   -6165949.856
10 0 59737  79920.00000  0    1646229.154    4204493.646   -5426941.722
10 0 59737  80100.00000  0    2327469.094    4925617.479   -4489339.848
10 0 59737  80280.00000  0    2940385.207    5450545.506   -3387227.060
10 0 59737  80460.00000  0    3457164.062    5762083.147   -2160833.151
10 0 59737  80640.00000  0    3853135.285    5851514.642    -855077.548
10 0 59737  80820.00000  0    4107939.738    5718879.971     482100.836
10 0 59737  81000.00000  0    4206534.292    5372878.953    1801555.632
10 0 59737  81180.00000  0    4139978.494    4830404.254    3054799.915
10 0 59737  81360.00000  0    3905960.979    4115731.662    4195848.143
10 0 59737  81540.00000  0    3509034.919    3259404.107    5182940.891
10 0 59737  81720.00000  0    2960557.618    2296884.082    5980081.963
10 0 59737  81900.00000  0    2278338.314    1267040.339    6558323.215
10 0 59737  82080.00000  0    1486028.144     210549.949    6896764.233
10 0 59737  82260.00000  0     612274.078    -831713.639    6983252.128
10 0 59737  82440.00000  0    -310328.314   -1820253.151    6814777.722
10 0 59737  82620.00000  0   -1246450.632   -2718433.232    6397557.622
10 0 59737  82800.00000  0   -2159372.169   -3493826.146    5746803.593
10 0 59737  82980.00000  0   -3012402.376   -4119379.402    4886199.080
10 0 59737  83160.00000  0   -3770355.938   -4574376.511    3847083.617
10 0 59737  83340.00000  0   -4401013.938   -4845146.150    2667345.804
10 0 59737  83520.00000  0   -4876502.090   -4925490.314    1390063.481
10 0 59737  83700.00000  0   -5174529.746   -4816809.870      61931.261
99
